IRIDIUM 36              
1 24967U 97056C   25019.60007968  .00000856  00000+0  28034-3 0  9996
2 24967  86.3943 235.3695 0002118  92.7564 267.3876 14.37360935430873
IRIDIUM 39              
1 25042U 97069D   25019.24672226  .00001256  00000+0  32617-3 0  9997
2 25042  86.3900 274.9987 0020156  84.2719 276.0783 14.48835859427395
IRIDIUM 38              
1 25043U 97069E   25019.25749721  .00000964  00000+0  31346-3 0  9997
2 25043  86.3965 295.8407 0001302 143.6498 216.4788 14.37866690424555
IRIDIUM 42              
1 25077U 97077A   25019.84819188  .00001034  00000+0  34868-3 0  9994
2 25077  86.3974 301.5808 0001528  94.2223 265.9149 14.36124047419904
IRIDIUM 44              
1 25078U 97077B   25019.22941329  .00000908  00000+0  28237-3 0  9992
2 25078  86.3952 284.1500 0003210 118.1966 241.9558 14.39990908422267
IRIDIUM 45              
1 25104U 97082A   25019.82338598  .00034318  00000+0  14579-2 0  9997
2 25104  86.3621 119.5557 0133299 164.3561 196.1863 15.15091611429779
IRIDIUM 24              
1 25105U 97082B   25019.80959610  .00001234  00000+0  37139-3 0  9999
2 25105  86.3951 143.2179 0010755 198.7710 161.3095 14.41825625422084
IRIDIUM 51              
1 25262U 98018A   25019.33111478  .00036684  00000+0  11308-2 0  9999
2 25262  86.3909 128.8265 0110557  97.5401 263.8422 15.27545604424210
